KHSE 030451Z AUTO 06005KT 10SM CLR 11/06 A3012 RMK AO2 SLP200 T01060061 401940094
KHSE 030351Z AUTO 05005KT 10SM CLR 10/05 A3012 RMK AO2 SLP200 T01000050
KHSE 030251Z AUTO 07004KT 10SM CLR 09/04 A3012 RMK AO2 SLP199 T00940044 51011
KHSE 030151Z AUTO 07004KT 10SM CLR 10/04 A3012 RMK AO2 SLP198 T01000044
KHSE 030051Z AUTO 07004KT 10SM CLR 10/04 A3010 RMK AO2 SLP192 T01000039
KHSE 022351Z AUTO 07004KT 10SM CLR 10/03 A3009 RMK AO2 SLP188 T01000033 10150 20100 51018
KHSE 022251Z AUTO 09006KT 10SM CLR 13/03 A3007 RMK AO2 SLP182 T01280033
KHSE 022151Z AUTO 09006KT 10SM CLR 14/04 A3005 RMK AO2 SLP176 T01390039
KHSE 022051Z AUTO 08007KT 10SM CLR 14/04 A3003 RMK AO2 SLP170 T01390039 58004
KHSE 021951Z AUTO 02007KT 350V060 10SM CLR 14/04 A3004 RMK AO2 SLP171 T01440044
KHSE 021851Z AUTO 36007KT 320V030 10SM CLR 15/04 A3005 RMK AO2 SLP175 T01500044
KHSE 021751Z AUTO 02007G15KT 340V050 10SM CLR 14/04 A3005 RMK AO2 SLP174 T01440044 10156 20122 51002
KHSE 021651Z AUTO 02008G15KT 10SM CLR 16/03 A3004 RMK AO2 SLP172 T01560028
KHSE 021551Z AUTO 02010G15KT 10SM CLR 14/03 A3005 RMK AO2 SLP175 T01440028
KHSE 021451Z AUTO VRB04KT 10SM CLR 14/02 A3004 RMK AO2 SLP172 T01440022 53025
KHSE 021351Z AUTO 35007KT 300V060 10SM CLR 14/02 A3001 RMK AO2 SLP162 T01390022
KHSE 021251Z AUTO VRB06G15KT 10SM CLR 13/03 A2999 RMK AO2 SLP154 T01280028
KHSE 021151Z AUTO 34007G17KT 280V020 10SM CLR 12/06 A2996 RMK AO2 SLP146 T01220056 10194 20111 53045
KHSE 021051Z AUTO 02012G20KT 10SM CLR 11/06 A2991 RMK AO2 SLP129 T01110056
KHSE 020951Z AUTO 01011G21KT 10SM CLR 12/06 A2987 RMK AO2 SLP114 T01170061
KHSE 020851Z AUTO 02008G23KT 320V060 10SM CLR 13/08 A2983 RMK AO2 SLP101 T01280083 53022
KHSE 020751Z AUTO 02009G18KT 350V050 10SM CLR 14/09 A2980 RMK AO2 SLP091 T01440094
KHSE 020651Z AUTO 02008G25KT 340V060 10SM FEW050 16/11 A2977 RMK AO2 PK WND 30030/0628 WSHFT 0629 SLP080 T01610106
KHSE 020649Z AUTO 02009G25KT 10SM FEW050 16/10 A2977 RMK AO2 PK WND 30030/0628 WSHFT 0629
KHSE 020642Z AUTO 01014G27KT 330V030 10SM FEW050 16/11 A2976 RMK AO2 PK WND 30030/0628 WSHFT 0622 T01610106
KHSE 020601Z AUTO 26011G20KT 4SM BR FEW007 18/16 A2971 RMK AO2 T01830161
KHSE 020551Z AUTO 25011G18KT 4SM BR CLR 18/17 A2971 RMK AO2 SLP061 T01830167 10206 20183 53009
KHSE 020451Z AUTO 25012G20KT 5SM BR CLR 19/17 A2970 RMK AO2 SLP055 T01890167 402220189
KHSE 020351Z AUTO 25016G30KT 5SM BR CLR 19/17 A2968 RMK AO2 PK WND 26030/0346 SLP050 T01890172
KHSE 020311Z AUTO 24017G26KT 5SM BR FEW012 19/17 A2968 RMK AO2 PK WND 23029/0253 T01940172
KHSE 020251Z AUTO 24016G30KT 5SM BR BKN013 19/17 A2968 RMK AO2 PK WND 24030/0205 SLP051 T01940172 51011
KHSE 020237Z AUTO 24021G30KT 5SM BR OVC014 19/17 A2968 RMK AO2 PK WND 24030/0205 T01940172
KHSE 020151Z AUTO 24019G29KT 5SM BR OVC019 20/18 A2968 RMK AO2 PK WND 23033/0111 SLP050 T02000178
KHSE 020051Z AUTO 23018G30KT 5SM BR OVC018 21/18 A2966 RMK AO2 PK WND 23036/0041 SLP042 T02060183
KHSE 012351Z AUTO 22020G33KT 5SM HZ OVC016 21/18 A2965 RMK AO2 PK WND 22033/2345 SLP040 T02060178 10217 20206 56030
KHSE 012251Z AUTO 22019G33KT 4SM HZ BKN017 21/18 A2968 RMK AO2 PK WND 22033/2157 SLP049 T02060178
KHSE 012151Z AUTO 22020G35KT 4SM HZ BKN015 21/18 A2970 RMK AO2 PK WND 22037/2108 SLP057 T02060178
KHSE 012121Z AUTO 22019G32KT 5SM HZ BKN017 21/18 A2967 RMK AO2 PK WND 22037/2108 PRESFR T02060178
KHSE 012051Z AUTO 23022G36KT 5SM HZ CLR 21/17 A2974 RMK AO2 PK WND 24036/2028 SLP070 T02060172 56046
KHSE 011951Z AUTO 22019G32KT 5SM HZ CLR 21/17 A2976 RMK AO2 PK WND 22032/1947 PRESFR SLP076 T02060172
KHSE 011926Z AUTO 22018G29KT 5SM HZ SCT023 21/17 A2979 RMK AO2 PK WND 23030/1909 T02060172
KHSE 011851Z AUTO 23019G27KT 5SM HZ OVC023 22/18 A2985 RMK AO2 PK WND 23031/1752 SLP106 T02170178
KHSE 011751Z AUTO 23020G30KT 5SM HZ OVC021 21/18 A2987 RMK AO2 PK WND 22031/1733 SLP116 T02110183 10222 20194 56029
KHSE 011651Z AUTO 21019G31KT 5SM HZ OVC024 21/18 A2989 RMK AO2 PK WND 22033/1641 SLP121 T02110178
KHSE 011604Z AUTO 21018G28KT 6SM HZ OVC028 22/18 A2992 RMK AO2 PK WND 21028/1556 T02170178
KHSE 011551Z AUTO 21020G27KT 5SM HZ OVC032 21/18 A2993 RMK AO2 PK WND 22029/1455 SLP135 T02110178
KHSE 011521Z AUTO 21017G26KT 5SM HZ OVC032 21/18 A2996 RMK AO2 PK WND 22029/1455 T02110178
KHSE 011451Z AUTO 21015G28KT 5SM HZ OVC029 21/17 A2996 RMK AO2 PK WND 22028/1448 SLP145 T02060172 58017
KHSE 011351Z AUTO 21018G23KT 6SM HZ BKN032 OVC042 21/17 A2998 RMK AO2 PK WND 22027/1311 SLP150 T02060172
KHSE 011251Z AUTO 22014G24KT 6SM HZ FEW040 20/16 A3000 RMK AO2 SLP158 T02000161
KHSE 011151Z AUTO 22013G24KT 5SM HZ CLR 19/17 A3001 RMK AO2 SLP161 70001 T01940167 10194 20189 56012
KHSE 011051Z AUTO 21015G25KT 7SM CLR 19/17 A3002 RMK AO2 SLP163 T01890167
KHSE 010951Z AUTO 22011G21KT 6SM BR CLR 19/17 A3003 RMK AO2 SLP169 T01890167
KHSE 010851Z AUTO 22013G21KT 7SM BKN032 19/16 A3004 RMK AO2 SLP173 T01890156 56028
KHSE 010751Z AUTO 22015G24KT 7SM SCT035 BKN110 19/16 A3007 RMK AO2 PK WND 21029/0716 SLP182 T01890156
KHSE 010651Z AUTO 22017G27KT 7SM FEW041 19/16 A3009 RMK AO2 PK WND 21027/0651 PRESFR SLP188 T01940156
KHSE 010551Z AUTO 22014G22KT 7SM FEW036 SCT045 OVC065 19/16 A3013 RMK AO2 RAB04E20 SLP201 P0000 60001 T01890156 10194 20178 56022
KHSE 010451Z AUTO 22015G24KT 7SM BKN036 OVC100 19/16 A3015 RMK AO2 PK WND 22028/0435 RAB23E33 SLP210 P0000 T01890161 402170083
KHSE 010351Z AUTO 21018G25KT 9SM OVC110 19/16 A3016 RMK AO2 PK WND 22027/0334 RAB06E37 SLP211 P0000 T01940156
KHSE 010251Z AUTO 22014G22KT 8SM FEW034 BKN045 BKN110 19/16 A3019 RMK AO2 RAB19E46 SLP224 P0000 60001 T01890156 58002
KHSE 010151Z AUTO 21014G25KT 9SM FEW038 BKN060 OVC085 18/16 A3022 RMK AO2 PK WND 23027/0113 RAE0057 SLP234 P0001 T01830156
KHSE 010051Z AUTO 22015G25KT 4SM -RA BR FEW021 BKN038 OVC050 18/16 A3021 RMK AO2 RAB2358 SLP230 P0000 T01780156
KHSE 312351Z AUTO 20014G22KT 10SM SCT055 BKN075 19/14 A3020 RMK AO2 SLP226 T01940144 10217 20189 58008
KHSE 312251Z AUTO 21012G21KT 8SM FEW030 FEW050 19/14 A3021 RMK AO2 PK WND 20026/2224 SLP228 T01890144
KHSE 312151Z AUTO 19018G24KT 9SM FEW046 BKN055 19/14 A3023 RMK AO2 PK WND 21026/2059 SLP234 T01940144
KHSE 312051Z AUTO 21015G23KT 10SM FEW038 BKN050 19/14 A3023 RMK AO2 PK WND 20026/2004 SLP234 T01940139 56027
KHSE 311951Z AUTO 20016G23KT 10SM CLR 19/13 A3024 RMK AO2 SLP240 T01940133
KHSE 311851Z AUTO 21011G22KT 10SM CLR 21/13 A3027 RMK AO2 SLP250 T02060128
KHSE 311751Z AUTO 22009KT 10SM CLR 21/12 A3030 RMK AO2 SLP261 T02060122 10206 20161 58022
KHSE 311651Z AUTO 19011KT 10SM CLR 19/14 A3034 RMK AO2 SLP272 T01940139
KHSE 311551Z AUTO 18011KT 10SM FEW050 BKN070 18/13 A3036 RMK AO2 SLP280 T01780133
KHSE 311451Z AUTO 18012KT 10SM FEW034 SCT047 OVC070 18/12 A3037 RMK AO2 SLP283 T01780122 52004
KHSE 311351Z AUTO 17012KT 10SM FEW036 17/12 A3036 RMK AO2 SLP281 T01720117
KHSE 311251Z AUTO 17012KT 10SM CLR 17/12 A3036 RMK AO2 SLP282 T01670117
KHSE 311151Z AUTO 17011KT 10SM CLR 16/11 A3036 RMK AO2 SLP279 T01610111 10161 20083 50000
KHSE 311051Z AUTO 17009KT 10SM FEW046 15/11 A3036 RMK AO2 SLP282 T01500106
KHSE 310951Z AUTO 16008KT 10SM CLR 14/11 A3036 RMK AO2 SLP279 T01390106
KHSE 310851Z AUTO 15006KT 10SM CLR 13/10 A3036 RMK AO2 SLP279 T01330100 58003
KHSE 310751Z AUTO 15006KT 10SM CLR 13/09 A3036 RMK AO2 SLP279 T01330094
KHSE 310651Z AUTO 08004KT 10SM CLR 09/06 A3037 RMK AO2 SLP285 T00890061
KHSE 310551Z AUTO 08005KT 10SM CLR 08/05 A3037 RMK AO2 SLP282 T00830050 10083 20072 58009
KHSE 310451Z AUTO 07005KT 10SM CLR 08/03 A3038 RMK AO2 SLP287 T00830033 401330033
KHSE 310351Z AUTO 07005KT 10SM CLR 08/04 A3039 RMK AO2 SLP289 T00830039
KHSE 310251Z AUTO 08004KT 10SM CLR 08/04 A3039 RMK AO2 SLP292 T00780039 50008
KHSE 310151Z AUTO 08003KT 10SM CLR 07/04 A3039 RMK AO2 SLP292 T00720039
KHSE 310051Z AUTO 07005KT 10SM CLR 08/03 A3038 RMK AO2 SLP285 T00780033
KHSE 302351Z AUTO 06005KT 10SM CLR 07/03 A3037 RMK AO2 SLP284 T00720028 10122 20072 52008
KHSE 302251Z AUTO 06007KT 030V090 10SM CLR 09/03 A3036 RMK AO2 SLP280 T00890028
KHSE 302151Z AUTO 05008G15KT 10SM CLR 10/02 A3036 RMK AO2 SLP279 T01000022
KHSE 302051Z AUTO 05009G15KT 10SM CLR 11/03 A3035 RMK AO2 SLP276 T01060033 50000
KHSE 301951Z AUTO 03012G19KT 10SM CLR 12/04 A3035 RMK AO2 SLP277 T01170039
KHSE 301851Z AUTO 03011G18KT 010V070 10SM CLR 12/03 A3035 RMK AO2 SLP276 T01170028
KHSE 301751Z AUTO 03013G21KT 10SM CLR 12/03 A3035 RMK AO2 SLP276 T01170033 10133 20117 50007
KHSE 301651Z AUTO 03012G20KT 10SM CLR 12/M02 A3035 RMK AO2 SLP276 T01221017 $
KHSE 301551Z AUTO 04010G19KT 340V090 10SM CLR 13/M01 A3034 RMK AO2 SLP275 T01281006 $
KHSE 301451Z AUTO 04011G23KT 10SM CLR 13/M01 A3033 RMK AO2 SLP268 T01281006 51022
KHSE 301351Z AUTO 02010G19KT 10SM CLR 13/M01 A3031 RMK AO2 SLP262 T01331006
KHSE 301251Z AUTO 32007G16KT 290V360 10SM CLR 13/M01 A3029 RMK AO2 SLP255 T01281011
KHSE 301151Z AUTO 30007KT 10SM CLR 13/01 A3026 RMK AO2 SLP246 70001 T01280011 10128 20033 53025
KHSE 301051Z AUTO 29004KT 10SM CLR 12/01 A3023 RMK AO2 SLP235 T01170006
KHSE 300951Z AUTO 30005KT 10SM CLR 11/01 A3020 RMK AO2 SLP226 T01060011
KHSE 300851Z AUTO 29004KT 10SM CLR 07/00 A3019 RMK AO2 SLP221 T00670000 53001
KHSE 300751Z AUTO 26003KT 10SM CLR 04/M02 A3018 RMK AO2 SLP219 T00391022
KHSE 300651Z AUTO 00000KT 10SM CLR 04/M02 A3018 RMK AO2 SLP221 T00391017
KHSE 300551Z AUTO 22003KT 10SM CLR 04/M02 A3018 RMK AO2 SLP220 T00391017 10089 20033 56009
KHSE 300451Z AUTO 00000KT 10SM CLR 04/M02 A3019 RMK AO2 SLP223 T00391022 401280033
KHSE 300351Z AUTO 00000KT 10SM CLR 04/M02 A3020 RMK AO2 SLP225 T00441022
KHSE 300251Z AUTO 08003KT 10SM CLR 05/M03 A3021 RMK AO2 SLP229 T00501028 51012
KHSE 300151Z AUTO 07003KT 10SM CLR 06/M03 A3021 RMK AO2 SLP229 T00561033
KHSE 300051Z AUTO 05004KT 10SM CLR 08/M05 A3019 RMK AO2 SLP222 T00781050
KHSE 292351Z AUTO 05005KT 10SM CLR 09/M06 A3017 RMK AO2 SLP217 T00891061 10128 20089 51008
KHSE 292251Z AUTO 02006KT 10SM CLR 11/M07 A3017 RMK AO2 SLP217 T01061072
KHSE 292151Z AUTO 01009G15KT 10SM CLR 12/M07 A3016 RMK AO2 SLP211 T01171067
KHSE 292051Z AUTO 02008KT 340V060 10SM CLR 12/M03 A3015 RMK AO2 SLP208 T01221033 55006
KHSE 291951Z AUTO 03008G19KT 360V080 10SM FEW024 12/M01 A3014 RMK AO2 SLP205 T01221011
KHSE 291851Z AUTO 02008G17KT 320V070 10SM SCT024 13/M01 A3016 RMK AO2 SLP212 T01281006
KHSE 291751Z AUTO VRB06G21KT 10SM FEW024 13/M01 A3017 RMK AO2 SLP215 60001 T01281006 10128 20072 50008
KHSE 291651Z AUTO 02010G21KT 350V050 10SM CLR 13/00 A3017 RMK AO2 SLP215 T01280000
KHSE 291602Z AUTO 04009G21KT 350V060 10SM SCT022 12/06 A3016 RMK AO2 T01220061
KHSE 291551Z AUTO 04011G21KT 10SM BKN022 13/07 A3016 RMK AO2 SLP213 T01280067
KHSE 291526Z AUTO 03010G19KT 350V060 10SM BKN021 11/06 A3016 RMK AO2 T01110056
KHSE 291516Z AUTO 03012G22KT 360V090 10SM SCT021 12/06 A3015 RMK AO2 T01170056
KHSE 291451Z AUTO 04009G23KT 10SM BKN021 11/10 A3014 RMK AO2 PK WND 02026/1430 SLP206 60001 T01110100 51017
KHSE 291351Z AUTO 03012G22KT 10SM FEW022 SCT100 11/ A3013 RMK AO2 SLP204 T0106
KHSE 291305Z AUTO 04010G20KT 010V100 10SM SCT016 OVC095 09/ A3012 RMK AO2 T0089
KHSE 291251Z AUTO 04012G23KT 010V070 10SM BKN015 OVC090 08/ A3012 RMK AO2 RAE13 SLP198 P0001 T0083
KHSE 291231Z AUTO 04009G19KT 10SM BKN015 BKN021 OVC075 08/ A3011 RMK AO2 RAE13 P0001 T0078
KHSE 291207Z AUTO 05012G19KT 9SM -RA BKN013 BKN060 OVC080 07/ A3009 RMK AO2 P0001 T0072
KHSE 291151Z AUTO 05012G22KT 020V080 6SM -RA SCT015 BKN065 OVC080 07/ A3009 RMK AO2 SLP189 P0006 60037 70041 T0072 10122 20072 51032
KHSE 291051Z AUTO 05011G24KT 6SM -RA SCT013 OVC060 07/ A3007 RMK AO2 SLP181 P0008 T0072
KHSE 291046Z AUTO 04012G24KT 360V090 6SM -RA SCT013 OVC060 07/ A3007 RMK AO2 P0007
KHSE 290951Z AUTO 04014G25KT 3SM RA BKN013 OVC019 08/ A3005 RMK AO2 PK WND 04029/0853 SLP176 P0008 T0083 $
KHSE 290934Z AUTO 03011G28KT 4SM RA FEW009 BKN015 OVC022 08/ A3005 RMK AO2 PK WND 04029/0853 P0004 T0083 $
KHSE 290918Z AUTO 04013G25KT 6SM RA BKN010 BKN015 OVC021 08/ A3003 RMK AO2 PK WND 04029/0853 CIG 008V013 PRESRR P0001 T0083 $
KHSE 290851Z AUTO 04014G28KT 5SM -RA BKN009 OVC060 09/ A3000 RMK AO2 PK WND 02028/0850 CIG 007V013 SLP157 P0006 60015 T0094 50001 $
KHSE 290837Z AUTO 03014G24KT 8SM -RA FEW009 BKN048 OVC080 09/ A3000 RMK AO2 P0004 T0089 $
KHSE 290751Z AUTO 01009G23KT 330V050 10SM -RA FEW017 OVC042 09/ A3001 RMK AO2 PK WND 01032/0723 SLP162 P0008 T0094 $
KHSE 290734Z AUTO 03009G25KT 010V080 8SM -RA FEW019 OVC039 09/ A3000 RMK AO2 PK WND 01032/0723 P0006 T0089 $
KHSE 290708Z AUTO 02014G29KT 3SM RA BR BKN016 BKN023 OVC028 09/09 A2999 RMK AO2 PK WND 02029/0703 P0005 T00940094 $
KHSE 290702Z AUTO 01014G25KT 350V050 2 1/2SM RA BR BKN014 BKN020 OVC030 09/09 A2999 RMK AO2 PK WND 02028/0652 P0002 T00940094 $
KHSE 290651Z AUTO 01014G32KT 350V050 8SM -RA SCT011 BKN019 OVC032 10/10 A3000 RMK AO2 PK WND 01032/0648 RAB04 CIG 015V025 SLP157 P0001 T01000100 $
KHSE 290648Z AUTO 01014G32KT 310V050 9SM -RA SCT013 BKN018 OVC032 10/08 A2999 RMK AO2 PK WND 01032/0648 RAB04 PRESRR P0001 $
KHSE 290551Z AUTO 01010G21KT 10SM FEW014 BKN031 OVC038 12/09 A2999 RMK AO2 PRESRR SLP154 60004 T01220094 10122 20100 55008 $
