KJFK 060351Z 09004KT 1/4SM R04R/1800V2000FT -DZ FG VV002 10/10 A3013 RMK AO2 SFC VIS 1/2 SLP203 P0000 T01000100
KJFK 060346Z 08006KT 1/4SM R04R/1800FT -DZ FG VV002 10/10 A3013 RMK AO2 SFC VIS 1/2 P0000
KJFK 060251Z 07005KT 1/4SM R04R/2400V2800FT -DZ FG VV002 10/10 A3016 RMK AO2 SFC VIS 1/2 SLP212 P0000 60000 T01000100 58004
KJFK 060246Z 08005KT 1/4SM R04R/2600V2800FT -DZ FG VV002 10/10 A3016 RMK AO2 SFC VIS 1/2 P0000
KJFK 060151Z 07007KT 3/4SM R04R/3500V4000FT -DZ BR VV002 09/09 A3017 RMK AO2 SLP217 P0000 T00940094
KJFK 060051Z 08009KT 3/4SM R04R/4000V4500FT -DZ BR VV002 09/09 A3017 RMK AO2 SLP216 P0000 T00890089
KJFK 052351Z 09009KT 1 1/4SM R04R/5500VP6000FT -DZ BR OVC002 09/09 A3017 RMK AO2 SLP216 P0000 60000 T00890089 10100 20089 58008
KJFK 052251Z 07009KT 1 1/4SM R04R/6000VP6000FT -DZ BR OVC003 09/09 A3019 RMK AO2 TWR VIS 1 1/2 SLP223 P0000 T00890089
KJFK 052151Z 07011KT 1 1/4SM R04R/5500VP6000FT -DZ BR OVC003 09/09 A3020 RMK AO2 TWR VIS 1 1/2 DZB06 SLP224 P0000 T00890089
KJFK 052051Z COR 08011KT 1 1/4SM R04R/4500V6000FT -DZ BR OVC005 09/09 A3020 RMK AO2 TWR VIS 1 1/2 SLP225 T00890089 56018
KJFK 051951Z 07009KT 1 1/2SM R04R/6000VP6000FT BR OVC005 09/09 A3021 RMK AO2 SFC VIS 2 1/2 SLP229 T00890089
KJFK 051851Z 09014G21KT 1 1/2SM BR OVC005 09/08 A3022 RMK AO2 SLP233 T00890083
KJFK 051751Z 09016G24KT 3SM BR OVC007 09/08 A3025 RMK AO2 SFC VIS 6 SLP242 60000 T00940078 10117 20094 56012
KJFK 051651Z 09015G26KT 3SM BR OVC008 09/08 A3025 RMK AO2 PK WND 10026/1610 SFC VIS 5 DZB04E25 SLP243 P0000 T00940078
KJFK 051604Z 09016KT 1 1/2SM -DZ BR OVC008 10/08 A3027 RMK AO2 SFC VIS 2 DZB04 P0000 T01000083
KJFK 051551Z 09020G27KT 5SM BR OVC009 10/08 A3027 RMK AO2 PK WND 10027/1551 SLP249 VIS SE-SW 2 1/2 T01000083
KJFK 051527Z 09018G25KT 6SM BR FEW006 OVC010 11/09 A3028 RMK AO2 T01060089
KJFK 051451Z 09015KT 2 1/2SM BR OVC006 11/09 A3028 RMK AO2 PK WND 08026/1358 SFC VIS 6 SLP254 CIG 004V008 T01060094 53010
KJFK 051351Z 08015G20KT 1 1/2SM BR OVC004 11/11 A3025 RMK AO2 SFC VIS 4 SLP245 T01110106
KJFK 051251Z 07011KT 2 1/2SM BR OVC004 11/11 A3025 RMK AO2 SLP242 T01110106
KJFK 051151Z 07010KT 2 1/2SM BR OVC004 11/10 A3025 RMK AO2 SFC VIS 5 DZE39 SLP244 P0000 60000 T01060100 10122 20100 51019
KJFK 051051Z 05010KT 1/2SM R04R/P6000FT -DZ BR OVC003 10/10 A3025 RMK AO2 SFC VIS 2 DZB48 SLP241 P0000 T01000100
KJFK 050951Z 05009KT 1/2SM R04R/P6000FT BR OVC003 10/10 A3022 RMK AO2 SFC VIS 3 SLP232 T01000100
KJFK 050851Z 05010KT 1/2SM R04R/P6000FT BR OVC003 11/11 A3020 RMK AO2 SFC VIS 3 SLP225 T01060106 53010
KJFK 050751Z 06008KT 1/4SM R04R/3500V4500FT FG VV002 12/12 A3019 RMK AO2 SLP222 T01220122
KJFK 050718Z 07006KT 1/4SM R04R/2000V2400FT FG VV002 12/12 A3017 RMK AO2 T01220122
KJFK 050651Z 07004KT 1/4SM R04R/1600FT FG VV002 12/12 A3016 RMK AO2 SLP214 T01170117
KJFK 050614Z 07004KT 1/4SM R04R/2000FT FG VV002 11/11 A3016 RMK AO2 SFC VIS 1/2 T01110111
KJFK 050551Z 06004KT 1/4SM R04R/2200V2800FT FG VV002 11/11 A3017 RMK AO2 SFC VIS 1/2 SLP216 T01110111 10122 20100 53019
KJFK 050451Z 00000KT 1/4SM R04R/2400V2600FT FG VV002 11/10 A3015 RMK AO2 SFC VIS 1/2 SLP208 T01060100 401780061
KJFK 050351Z 16005KT 1/4SM R04R/2600V3000FT FG VV002 10/10 A3012 RMK AO2 SLP197 T01000100
KJFK 050251Z 18007KT 1/4SM R04R/2200V2800FT FG VV002 11/11 A3011 RMK AO2 SLP197 T01060106 51022
KJFK 050246Z 18007KT 1/4SM R04R/2400V3500FT FG VV002 11/11 A3011 RMK AO2
KJFK 050151Z 20008KT 1/2SM R04R/P6000FT BKN003 OVC250 11/11 A3010 RMK AO2 SFC VIS 9 SLP191 T01110106
KJFK 050121Z 18008KT 2SM OVC004 11/11 A3009 RMK AO2 SFC VIS 8 T01110111
KJFK 050112Z 18006KT 10SM BKN004 BKN060 BKN250 11/11 A3009 RMK AO2 T01110111
KJFK 050102Z 00000KT 10SM FEW003 FEW065 BKN250 12/11 A3009 RMK AO2 T01170111
KJFK 050051Z 17005KT 10SM FEW060 BKN250 11/11 A3008 RMK AO2 SLP184 T01110111
KJFK 042351Z 19013KT 10SM FEW065 BKN250 12/12 A3005 RMK AO2 SLP175 T01220117 10172 20122 53013
KJFK 042251Z 19018G25KT 10SM SCT075 BKN250 14/13 A3003 RMK AO2 PK WND 19027/2157 SLP167 T01440128
KJFK 042151Z 19020G28KT 10SM SCT065 BKN250 15/13 A3001 RMK AO2 PK WND 19029/2125 SLP163 T01500133
KJFK 042051Z 18018G26KT 10SM SCT070 BKN250 14/12 A3001 RMK AO2 PK WND 18026/2043 SLP162 T01440117 58012
KJFK 041951Z 16013KT 10SM FEW050 BKN070 BKN250 16/11 A3002 RMK AO2 SLP166 T01560111
KJFK 041851Z 17009KT 10SM SCT040 BKN250 17/12 A3004 RMK AO2 SLP172 T01720117
KJFK 041751Z 17009KT 10SM FEW037 BKN250 17/12 A3005 RMK AO2 SLP174 T01670117 10178 20094 56008
KJFK 041651Z 16006KT 10SM FEW035 BKN250 17/12 A3005 RMK AO2 SLP174 T01670117
KJFK 041551Z 16005KT 10SM FEW028 SCT250 16/12 A3006 RMK AO2 SLP180 T01610117
KJFK 041451Z 17007KT 10SM FEW022 SCT250 14/11 A3007 RMK AO2 SLP182 T01440106 53004
KJFK 041401Z 19003KT 10SM SCT014 SCT250 14/11 A3006 RMK AO2 T01390106
KJFK 041351Z 18003KT 10SM BKN014 BKN250 14/11 A3006 RMK AO2 SLP180 CIG 012V016 T01390106
KJFK 041316Z 15003KT 10SM BKN015 BKN250 12/09 A3005 RMK AO2 CIG 013V017 T01170094
KJFK 041251Z 00000KT 10SM FEW018 FEW250 11/09 A3006 RMK AO2 SLP177 T01110094
KJFK 041151Z 00000KT 9SM FEW018 FEW250 09/09 A3006 RMK AO2 SLP177 T00940089 10094 20061 53014
KJFK 041051Z 00000KT 8SM FEW016 FEW250 07/07 A3004 RMK AO2 SLP171 T00720072
KJFK 040951Z 14004KT 9SM FEW012 07/07 A3003 RMK AO2 SLP167 T00720072
KJFK 040851Z 10004KT 9SM FEW012 07/07 A3002 RMK AO2 SLP164 T00670067 53005