KSDL 100653Z AUTO 00000KT 10SM CLR 22/01 A3002 RMK AO2 SLP144 T02170006 403110133
KSDL 100553Z AUTO 02003KT 10SM CLR 23/01 A3002 RMK AO2 SLP146 T02280006 10311 20228 50009
KSDL 100453Z AUTO 00000KT 10SM CLR 24/01 A3002 RMK AO2 SLP147 T02440011
KSDL 100353Z AUTO 00000KT 10SM CLR 26/01 A3001 RMK AO2 SLP144 T02560006
KSDL 100253Z 00000KT 10SM CLR 27/00 A2999 RMK AO2 SLP138 T02670000 53000
KSDL 100153Z 24003KT 10SM CLR 29/M02 A2998 RMK AO2 SLP134 T02941022
KSDL 100053Z 26003KT 10SM CLR 31/M03 A2998 RMK AO2 SLP133 T03111028
KSDL 092353Z 28006KT 10SM CLR 31/M03 A2999 RMK AO2 SLP137 T03111033 10311 20250 56017
KSDL 092253Z 16007KT 10SM CLR 31/M03 A3000 RMK AO2 SLP139 T03111028
KSDL 092153Z 15005KT 10SM CLR 30/M03 A3002 RMK AO2 SLP146 T03001028
KSDL 092053Z VRB03KT 10SM CLR 30/M03 A3004 RMK AO2 SLP153 T03001028 58022
KSDL 091953Z 19003KT 10SM CLR 28/M02 A3007 RMK AO2 SLP164 T02831022
KSDL 091853Z 00000KT 10SM CLR 28/M03 A3010 RMK AO2 SLP171 T02781028
KSDL 091753Z 18005KT 10SM CLR 25/M02 A3011 RMK AO2 SLP178 T02501022 10256 20133 50006
KSDL 091653Z 00000KT 10SM CLR 23/M01 A3011 RMK AO2 SLP178 T02281006
KSDL 091553Z 23004KT 10SM CLR 20/M01 A3011 RMK AO2 SLP177 T02001006
KSDL 091453Z 00000KT 10SM CLR 17/02 A3009 RMK AO2 SLP173 T01670022 53018
KSDL 091353Z 00000KT 9SM CLR 13/03 A3007 RMK AO2 SLP166 T01330033
KSDL 091253Z 00000KT 10SM CLR 14/02 A3005 RMK AO2 SLP159 T01390022
KSDL 091153Z AUTO 00000KT 10SM CLR 13/02 A3004 RMK AO2 SLP154 T01330017 10211 20133 53005
KSDL 091053Z AUTO 00000KT 10SM CLR 14/01 A3002 RMK AO2 SLP149 T01390006
KSDL 090953Z AUTO 00000KT 10SM CLR 14/01 A3002 RMK AO2 SLP149 T01440011
KSDL 090853Z AUTO 00000KT 10SM CLR 16/00 A3002 RMK AO2 SLP148 T01610000 52003
KSDL 090753Z AUTO 00000KT 10SM CLR 17/00 A3002 RMK AO2 SLP146 T01720000
KSDL 090653Z AUTO 00000KT 10SM CLR 19/M02 A3001 RMK AO2 SLP144 T01941022 402890106
KSDL 090553Z AUTO 36005KT 10SM CLR 21/M02 A3001 RMK AO2 SLP143 T02061022 10278 20206 50013
KSDL 090453Z AUTO 01005KT 10SM CLR 22/M03 A3001 RMK AO2 SLP145 T02171033
KSDL 090353Z 00000KT 10SM CLR 23/M04 A3000 RMK AO2 SLP141 T02281044
KSDL 090253Z 26003KT 10SM CLR 24/M06 A2997 RMK AO2 SLP133 T02391056 53007
KSDL 090153Z 25004KT 10SM CLR 26/M07 A2996 RMK AO2 SLP128 T02561067
KSDL 090053Z 29004KT 10SM CLR 27/M08 A2995 RMK AO2 SLP126 T02721078
KSDL 082353Z 00000KT 10SM CLR 27/M08 A2995 RMK AO2 SLP126 T02721078 10289 20233 56010
KSDL 082253Z 28005KT 10SM CLR 28/M08 A2995 RMK AO2 SLP127 T02781078
KSDL 082153Z 25006KT 10SM CLR 28/M08 A2997 RMK AO2 SLP130 T02781078
KSDL 082053Z VRB04KT 10SM CLR 27/M06 A2998 RMK AO2 SLP135 T02671061 58019
KSDL 081953Z VRB04KT 10SM CLR 27/M08 A3001 RMK AO2 SLP143 T02671083
KSDL 081853Z 17004KT 10SM CLR 26/M05 A3003 RMK AO2 SLP151 T02561050
KSDL 081753Z 15004KT 10SM CLR 23/M03 A3004 RMK AO2 SLP155 T02331028 10233 20106 51010
KSDL 081653Z 00000KT 10SM CLR 21/M01 A3004 RMK AO2 SLP156 T02111011
KSDL 081553Z 00000KT 10SM CLR 18/M01 A3003 RMK AO2 SLP153 T01781006
KSDL 081453Z 00000KT 10SM CLR 14/M01 A3001 RMK AO2 SLP148 T01441006 53015
KSDL 081353Z 00000KT 10SM CLR 12/01 A2999 RMK AO2 SLP141 T01170011
KSDL 081253Z 00000KT 10SM CLR 12/01 A2997 RMK AO2 SLP131 T01220011
KSDL 081153Z AUTO 24003KT 10SM CLR 12/01 A2997 RMK AO2 SLP131 T01170011 10194 20117 55000
KSDL 081053Z AUTO 00000KT 10SM CLR 12/01 A2996 RMK AO2 SLP130 T01170011
KSDL 080953Z AUTO 00000KT 10SM CLR 14/00 A2996 RMK AO2 SLP130 T01390000
KSDL 080853Z AUTO 00000KT 10SM CLR 14/01 A2997 RMK AO2 SLP130 T01440006 50000
KSDL 080753Z AUTO 03004KT 10SM CLR 17/M03 A2997 RMK AO2 SLP130 T01671028