KJFK 031051Z 21008KT 8SM OVC016 11/09 A3000 RMK AO2 SLP159 T01060089=
KJFK 111551Z 23015KT 10SM SCT045 BKN100 17/08 A3006 RMK AO2 SLP178 T01670078=
KJFK 050551Z 06004KT 1/4SM R04R/2200V2800FT FG VV002 11/11 A3017 RMK AO2 SFC VIS 1/2 SLP216 T01110111 10122 20100 53019
KJFK 051251Z 25006KT 8SM FEW020 BKN080 OVC110 08/03 A3002 RMK AO2 SLP166 T00830028=
KJFK 071751Z 20010KT 6SM HZ FEW012 SCT025 BKN070 08/03 A3004 RMK AO2 SLP173 T00830033=
KJFK 050551Z 06004KT 1/4SM R04R/2200V2800FT FG VV002 11/11 A3017 RMK AO2 SFC VIS 1/2 SLP216 T01110111 10122 20100 53019
KJFK 221351Z 27012KT 10SM SCT250 21/08 A3005 RMK AO2 SLP175 T02060078=
KJFK 050351Z 16005KT 1/4SM R04R/2600V3000FT FG VV002 10/10 A3012 RMK AO2 SLP197 T01000100
KJFK 050251Z 18007KT 1/4SM R04R/2200V2800FT FG VV002 11/11 A3011 RMK AO2 SLP197 T01060106 51022
KJFK 050246Z 18007KT 1/4SM R04R/2400V3500FT FG VV002 11/11 A3011 RMK AO2
KJFK 050151Z 20008KT 1/2SM R04R/P6000FT BKN003 OVC250 11/11 A3010 RMK AO2 SFC VIS 9 SLP191 T01110106
KJFK 050121Z 18008KT 2SM OVC004 11/11 A3009 RMK AO2 SFC VIS 8 T01110111
KJFK 050112Z 18006KT 10SM BKN004 BKN060 BKN250 11/11 A3009 RMK AO2 T01110111
KJFK 050102Z 00000KT 10SM FEW003 FEW065 BKN250 12/11 A3009 RMK AO2 T01170111
KJFK 050051Z 17005KT 10SM FEW060 BKN250 11/11 A3008 RMK AO2 SLP184 T01110111
KJFK 042351Z 19013KT 10SM FEW065 BKN250 12/12 A3005 RMK AO2 SLP175 T01220117 10172 20122 53013
KJFK 042251Z 19018G25KT 10SM SCT075 BKN250 14/13 A3003 RMK AO2 PK WND 19027/2157 SLP167 T01440128
KJFK 042151Z 19020G28KT 10SM SCT065 BKN250 15/13 A3001 RMK AO2 PK WND 19029/2125 SLP163 T01500133
KJFK 042051Z 18018G26KT 10SM SCT070 BKN250 14/12 A3001 RMK AO2 PK WND 18026/2043 SLP162 T01440117 58012
KJFK 041951Z 16013KT 10SM FEW050 BKN070 BKN250 16/11 A3002 RMK AO2 SLP166 T01560111
KJFK 041851Z 17009KT 10SM SCT040 BKN250 17/12 A3004 RMK AO2 SLP172 T01720117
KJFK 041751Z 17009KT 10SM FEW037 BKN250 17/12 A3005 RMK AO2 SLP174 T01670117 10178 20094 56008
KJFK 041651Z 16006KT 10SM FEW035 BKN250 17/12 A3005 RMK AO2 SLP174 T01670117
KJFK 041551Z 16005KT 10SM FEW028 SCT250 16/12 A3006 RMK AO2 SLP180 T01610117
KJFK 041451Z 17007KT 10SM FEW022 SCT250 14/11 A3007 RMK AO2 SLP182 T01440106 53004
KJFK 041401Z 19003KT 10SM SCT014 SCT250 14/11 A3006 RMK AO2 T01390106
KJFK 041351Z 18003KT 10SM BKN014 BKN250 14/11 A3006 RMK AO2 SLP180 CIG 012V016 T01390106
KJFK 041316Z 15003KT 10SM BKN015 BKN250 12/09 A3005 RMK AO2 CIG 013V017 T01170094
KJFK 041251Z 00000KT 10SM FEW018 FEW250 11/09 A3006 RMK AO2 SLP177 T01110094
KJFK 041151Z 00000KT 9SM FEW018 FEW250 09/09 A3006 RMK AO2 SLP177 T00940089 10094 20061 53014
KJFK 041051Z 00000KT 8SM FEW016 FEW250 07/07 A3004 RMK AO2 SLP171 T00720072
KJFK 040951Z 14004KT 9SM FEW012 07/07 A3003 RMK AO2 SLP167 T00720072
KJFK 040851Z 10004KT 9SM FEW012 07/07 A3002 RMK AO2 SLP164 T00670067 53005
KJFK 040751Z 05003KT 10SM CLR 07/07 A3000 RMK AO2 SLP159 T00720067
KJFK 040651Z 18007KT 10SM FEW170 08/07 A2999 RMK AO2 SLP156 T00780072
KJFK 040551Z 17007KT 10SM FEW170 08/07 A3000 RMK AO2 SLP159 T00830072 10089 20083 56009
KJFK 040451Z 18007KT 10SM FEW170 08/07 A3001 RMK AO2 SLP163 T00830072 401170006
KJFK 040351Z 19009KT 10SM SCT170 08/07 A3001 RMK AO2 SLP163 T00830072
KJFK 040251Z 19009KT 10SM FEW150 FEW250 08/07 A3003 RMK AO2 SLP168 T00830072 50000
KJFK 040151Z 19013KT 10SM SCT180 SCT250 09/07 A3003 RMK AO2 SLP169 T00890067
KJFK 040051Z 19016KT 10SM FEW180 SCT250 09/06 A3003 RMK AO2 SLP169 T00890061
KJFK 032351Z 18019KT 10SM FEW100 SCT180 BKN250 09/05 A3003 RMK AO2 PK WND 18028/2254 SLP168 T00890050 10117 20089 50002
KJFK 032251Z 18021G29KT 10SM FEW110 BKN250 09/04 A3003 RMK AO2 PK WND 19031/2201 SLP168 T00940044
KJFK 032151Z 18022G31KT 10SM FEW110 BKN240 10/04 A3002 RMK AO2 PK WND 19034/2116 SLP167 T01000044
KJFK 032051Z 18023G30KT 10SM FEW110 BKN250 10/04 A3002 RMK AO2 PK WND 19036/2013 SLP165 T01000044 56033
KJFK 031951Z 18024G31KT 10SM FEW110 SCT250 11/04 A3005 RMK AO2 PK WND 19031/1951 SLP174 T01110039
KJFK 031851Z 17020G27KT 10SM FEW110 SCT250 11/03 A3008 RMK AO2 PK WND 17029/1833 SLP185 T01110028
KJFK 031751Z 17019G25KT 10SM FEW110 FEW250 11/03 A3012 RMK AO2 SLP198 T01060028 10117 20039 58026 $
KJFK 031651Z 16015KT 10SM FEW055 FEW250 11/03 A3014 RMK AO2 SLP207 T01060033 $
KJFK 031551Z 16013KT 10SM FEW075 FEW250 09/01 A3018 RMK AO2 SLP219 T00940011
KJFK 031451Z 16009KT 10SM FEW250 09/01 A3019 RMK AO2 SLP224 T00890006 56009
KJFK 031351Z 15010KT 10SM FEW250 08/00 A3020 RMK AO2 SLP228 T00830000
KJFK 031251Z 14009KT 10SM FEW250 07/M02 A3019 RMK AO2 SLP223 T00671017
KJFK 031151Z 00000KT 10SM FEW250 04/M06 A3022 RMK AO2 SLP233 T00391061 10039 20006 53029
KJFK 031051Z 06004KT 10SM FEW250 01/M08 A3018 RMK AO2 SLP220 T00111078
KJFK 030951Z 06003KT 10SM CLR 01/M08 A3016 RMK AO2 SLP212 T00061083
KJFK 030851Z 08005KT 10SM CLR 01/M09 A3014 RMK AO2 SLP204 T00111089 58003
KJFK 030751Z 07005KT 10SM CLR 01/M07 A3014 RMK AO2 SLP207 T00111072
KJFK 030651Z 09004KT 10SM CLR 02/M09 A3015 RMK AO2 SLP208 T00171094
KJFK 030551Z 08004KT 10SM CLR 03/M09 A3015 RMK AO2 SLP208 T00281094 10083 20022 50008
KJFK 030451Z 05004KT 10SM CLR 03/M09 A3015 RMK AO2 SLP209 T00331094 401110033
KJFK 030351Z 02006KT 10SM CLR 04/M11 A3014 RMK AO2 SLP205 T00441106
KJFK 030251Z 33009KT 10SM CLR 07/M12 A3012 RMK AO2 SLP200 T00671122 51026
KJFK 030151Z 34009KT 10SM CLR 07/M12 A3011 RMK AO2 SLP197 T00671117
KJFK 030051Z 34010KT 10SM FEW250 07/M12 A3008 RMK AO2 SLP185 T00721117
KJFK 022351Z 32013G19KT 10SM FEW250 08/M13 A3004 RMK AO2 SLP173 T00831128 10111 20083 53020
KJFK 022251Z 32013KT 10SM FEW250 09/M12 A3001 RMK AO2 SLP163 T00941122
KJFK 022151Z 32012KT 10SM FEW250 10/M12 A3000 RMK AO2 SLP157 T01001117
KJFK 022051Z 30011G19KT 10SM CLR 11/M11 A2999 RMK AO2 SLP154 T01061106 53003
KJFK 021951Z 33014G20KT 10SM CLR 11/M10 A2998 RMK AO2 SLP151 T01111100
KJFK 021851Z 33015G24KT 270V360 10SM FEW250 10/M09 A2997 RMK AO2 PK WND 34030/1840 SLP149 T01001094
KJFK 021751Z 34016G22KT 10SM FEW250 10/M09 A2998 RMK AO2 PK WND 35028/1700 SLP150 T01001094 10106 20050 51024
KJFK 021651Z 36018G26KT 10SM FEW250 09/M09 A2996 RMK AO2 PK WND 33027/1626 SLP143 T00891089
KJFK 021551Z 32018G27KT 10SM FEW250 08/M07 A2993
KJFK 021451Z 33024G30KT 10SM FEW040 FEW250 08/M07 A2991
KJFK 021351Z 31023G32KT 10SM FEW040 SCT250 06/M04 A2988 RMK AO2 PK WND 33038/1332 SLP118 T00611044
KJFK 021251Z 31026G39KT 10SM SCT039 BKN250 05/M04 A2985 RMK AO2 PK WND 31039/1243 SLP107 T00501039
KJFK 021151Z 31022G38KT 10SM SCT040 SCT250 05/M03 A2982 RMK AO2 PK WND 32038/1149 SLP097 70022 T00501028 10100 20050 53051
KJFK 021051Z 31023KT 10SM FEW045 SCT250 05/M03 A2977 RMK AO2 PK WND 31035/1041 SLP079 T00501028
KJFK 020951Z 30020G27KT 10SM FEW045 06/M02 A2970 RMK AO2 PK WND 32037/0928 SLP057 T00611022
KJFK 020851Z 31025G39KT 10SM FEW042 07/M02 A2967 RMK AO2 PK WND 31039/0842 SLP045 T00671017 53049